[
  {
    "COMMENT": "GENERATED VIA SPACETRACK.ORG API",
    "ORIGINATOR": "18 SPCS",
    "NORAD_CAT_ID": "20436",
    "OBJECT_NAME": "SPOT 2",
    "OBJECT_TYPE": "PAYLOAD",
    "CLASSIFICATION_TYPE": "U",
    "INTLDES": "90005A",
    "EPOCH": "2023-05-10 03:58:12",
    "EPOCH_MICROSECONDS": "346752",
    "MEAN_MOTION": "14.68017919",
    "ECCENTRICITY": "0.0142287",
    "INCLINATION": "98.6635",
    "RA_OF_ASC_NODE": "199.2363",
    "ARG_OF_PERICENTER": "42.7499",
    "MEAN_ANOMALY": "318.4667",
    "EPHEMERIS_TYPE": "0",
    "ELEMENT_SET_NO": "999",
    "REV_AT_EPOCH": "74859",
    "BSTAR": "0.00036011",
    "MEAN_MOTION_DOT": "0.00002344",
    "MEAN_MOTION_DDOT": "0",
    "FILE": "3904555",
    "TLE_LINE0": "0 SPOT 2",
    "TLE_LINE1": "1 20436U 90005A   23130.16542068  .00002344  00000-0  36011-3 0  9997",
    "TLE_LINE2": "2 20436  98.6635 199.2363 0142287  42.7499 318.4667 14.68017919748590",
    "OBJECT_ID": "1990-005A",
    "OBJECT_NUMBER": "20436",
    "SEMIMAJOR_AXIS": "7045.540",
    "PERIOD": "98.091",
    "APOGEE": "767.654",
    "PERIGEE": "567.156",
    "DECAYED": "0"
  },
  {
    "COMMENT": "GENERATED VIA SPACETRACK.ORG API",
    "ORIGINATOR": "18 SPCS",
    "NORAD_CAT_ID": "20436",
    "OBJECT_NAME": "SPOT 2",
    "OBJECT_TYPE": "PAYLOAD",
    "CLASSIFICATION_TYPE": "U",
    "INTLDES": "90005A",
    "EPOCH": "2023-05-10 18:41:32",
    "EPOCH_MICROSECONDS": "278848",
    "MEAN_MOTION": "14.68021279",
    "ECCENTRICITY": "0.0142237",
    "INCLINATION": "98.6635",
    "RA_OF_ASC_NODE": "199.8857",
    "ARG_OF_PERICENTER": "40.8454",
    "MEAN_ANOMALY": "320.3305",
    "EPHEMERIS_TYPE": "0",
    "ELEMENT_SET_NO": "999",
    "REV_AT_EPOCH": "74870",
    "BSTAR": "0.00038516",
    "MEAN_MOTION_DOT": "0.00002511",
    "MEAN_MOTION_DDOT": "0",
    "FILE": "3904768",
    "TLE_LINE0": "0 SPOT 2",
    "TLE_LINE1": "1 20436U 90005A   23130.77884582  .00002511  00000-0  38516-3 0  9992",
    "TLE_LINE2": "2 20436  98.6635 199.8857 0142237  40.8454 320.3305 14.68021279748707",
    "OBJECT_ID": "1990-005A",
    "OBJECT_NUMBER": "20436",
    "SEMIMAJOR_AXIS": "7045.529",
    "PERIOD": "98.091",
    "APOGEE": "767.608",
    "PERIGEE": "567.181",
    "DECAYED": "0"
  },
  {
    "COMMENT": "GENERATED VIA SPACETRACK.ORG API",
    "ORIGINATOR": "18 SPCS",
    "NORAD_CAT_ID": "20436",
    "OBJECT_NAME": "SPOT 2",
    "OBJECT_TYPE": "PAYLOAD",
    "CLASSIFICATION_TYPE": "U",
    "INTLDES": "90005A",
    "EPOCH": "2023-05-10 18:41:32",
    "EPOCH_MICROSECONDS": "278848",
    "MEAN_MOTION": "14.68021279",
    "ECCENTRICITY": "0.0142237",
    "INCLINATION": "98.6635",
    "RA_OF_ASC_NODE": "199.8857",
    "ARG_OF_PERICENTER": "40.8454",
    "MEAN_ANOMALY": "320.3305",
    "EPHEMERIS_TYPE": "0",
    "ELEMENT_SET_NO": "999",
    "REV_AT_EPOCH": "74868",
    "BSTAR": "0.00038516",
    "MEAN_MOTION_DOT": "0.00002511",
    "MEAN_MOTION_DDOT": "0",
    "FILE": "3904830",
    "TLE_LINE0": "0 SPOT 2",
    "TLE_LINE1": "1 20436U 90005A   23130.77884582  .00002511  00000-0  38516-3 0  9992",
    "TLE_LINE2": "2 20436  98.6635 199.8857 0142237  40.8454 320.3305 14.68021279748684",
    "OBJECT_ID": "1990-005A",
    "OBJECT_NUMBER": "20436",
    "SEMIMAJOR_AXIS": "7045.529",
    "PERIOD": "98.091",
    "APOGEE": "767.608",
    "PERIGEE": "567.181",
    "DECAYED": "0"
  },
  {
    "COMMENT": "GENERATED VIA SPACETRACK.ORG API",
    "ORIGINATOR": "18 SPCS",
    "NORAD_CAT_ID": "20436",
    "OBJECT_NAME": "SPOT 2",
    "OBJECT_TYPE": "PAYLOAD",
    "CLASSIFICATION_TYPE": "U",
    "INTLDES": "90005A",
    "EPOCH": "2023-05-11 11:03:01",
    "EPOCH_MICROSECONDS": "9440",
    "MEAN_MOTION": "14.68023408",
    "ECCENTRICITY": "0.0142213",
    "INCLINATION": "98.6635",
    "RA_OF_ASC_NODE": "200.6073",
    "ARG_OF_PERICENTER": "38.7342",
    "MEAN_ANOMALY": "322.3955",
    "EPHEMERIS_TYPE": "0",
    "ELEMENT_SET_NO": "999",
    "REV_AT_EPOCH": "74878",
    "BSTAR": "0.00034763",
    "MEAN_MOTION_DOT": "0.0000226",
    "MEAN_MOTION_DDOT": "0",
    "FILE": "3905210",
    "TLE_LINE0": "0 SPOT 2",
    "TLE_LINE1": "1 20436U 90005A   23131.46042835  .00002260  00000-0  34763-3 0  9997",
    "TLE_LINE2": "2 20436  98.6635 200.6073 0142213  38.7342 322.3955 14.68023408748781",
    "OBJECT_ID": "1990-005A",
    "OBJECT_NUMBER": "20436",
    "SEMIMAJOR_AXIS": "7045.522",
    "PERIOD": "98.091",
    "APOGEE": "767.584",
    "PERIGEE": "567.191",
    "DECAYED": "0"
  },
  {
    "COMMENT": "GENERATED VIA SPACETRACK.ORG API",
    "ORIGINATOR": "18 SPCS",
    "NORAD_CAT_ID": "20436",
    "OBJECT_NAME": "SPOT 2",
    "OBJECT_TYPE": "PAYLOAD",
    "CLASSIFICATION_TYPE": "U",
    "INTLDES": "90005A",
    "EPOCH": "2023-05-11 22:30:03",
    "EPOCH_MICROSECONDS": "21408",
    "MEAN_MOTION": "14.68025336",
    "ECCENTRICITY": "0.0142191",
    "INCLINATION": "98.6635",
    "RA_OF_ASC_NODE": "201.1123",
    "ARG_OF_PERICENTER": "37.2548",
    "MEAN_ANOMALY": "323.8417",
    "EPHEMERIS_TYPE": "0",
    "ELEMENT_SET_NO": "999",
    "REV_AT_EPOCH": "74885",
    "BSTAR": "0.00033926",
    "MEAN_MOTION_DOT": "0.00002204",
    "MEAN_MOTION_DDOT": "0",
    "FILE": "3905576",
    "TLE_LINE0": "0 SPOT 2",
    "TLE_LINE1": "1 20436U 90005A   23131.93753497  .00002204  00000-0  33926-3 0  9990",
    "TLE_LINE2": "2 20436  98.6635 201.1123 0142191  37.2548 323.8417 14.68025336748859",
    "OBJECT_ID": "1990-005A",
    "OBJECT_NUMBER": "20436",
    "SEMIMAJOR_AXIS": "7045.516",
    "PERIOD": "98.091",
    "APOGEE": "767.562",
    "PERIGEE": "567.200",
    "DECAYED": "0"
  },
  {
    "COMMENT": "GENERATED VIA SPACETRACK.ORG API",
    "ORIGINATOR": "18 SPCS",
    "NORAD_CAT_ID": "20436",
    "OBJECT_NAME": "SPOT 2",
    "OBJECT_TYPE": "PAYLOAD",
    "CLASSIFICATION_TYPE": "U",
    "INTLDES": "90005A",
    "EPOCH": "2023-05-11 22:30:03",
    "EPOCH_MICROSECONDS": "21408",
    "MEAN_MOTION": "14.68025336",
    "ECCENTRICITY": "0.0142191",
    "INCLINATION": "98.6635",
    "RA_OF_ASC_NODE": "201.1123",
    "ARG_OF_PERICENTER": "37.2548",
    "MEAN_ANOMALY": "323.8417",
    "EPHEMERIS_TYPE": "0",
    "ELEMENT_SET_NO": "999",
    "REV_AT_EPOCH": "74887",
    "BSTAR": "0.00033926",
    "MEAN_MOTION_DOT": "0.00002204",
    "MEAN_MOTION_DDOT": "0",
    "FILE": "3905856",
    "TLE_LINE0": "0 SPOT 2",
    "TLE_LINE1": "1 20436U 90005A   23131.93753497  .00002204  00000-0  33926-3 0  9990",
    "TLE_LINE2": "2 20436  98.6635 201.1123 0142191  37.2548 323.8417 14.68025336748871",
    "OBJECT_ID": "1990-005A",
    "OBJECT_NUMBER": "20436",
    "SEMIMAJOR_AXIS": "7045.516",
    "PERIOD": "98.091",
    "APOGEE": "767.562",
    "PERIGEE": "567.200",
    "DECAYED": "0"
  },
  {
    "COMMENT": "GENERATED VIA SPACETRACK.ORG API",
    "ORIGINATOR": "18 SPCS",
    "NORAD_CAT_ID": "20436",
    "OBJECT_NAME": "SPOT 2",
    "OBJECT_TYPE": "PAYLOAD",
    "CLASSIFICATION_TYPE": "U",
    "INTLDES": "90005A",
    "EPOCH": "2023-05-12 03:24:29",
    "EPOCH_MICROSECONDS": "575872",
    "MEAN_MOTION": "14.68025823",
    "ECCENTRICITY": "0.0142171",
    "INCLINATION": "98.6635",
    "RA_OF_ASC_NODE": "201.3288",
    "ARG_OF_PERICENTER": "36.617",
    "MEAN_ANOMALY": "324.4649",
    "EPHEMERIS_TYPE": "0",
    "ELEMENT_SET_NO": "999",
    "REV_AT_EPOCH": "74888",
    "BSTAR": "0.00031713",
    "MEAN_MOTION_DOT": "0.00002056",
    "MEAN_MOTION_DDOT": "0",
    "FILE": "3905921",
    "TLE_LINE0": "0 SPOT 2",
    "TLE_LINE1": "1 20436U 90005A   23132.14200898  .00002056  00000-0  31713-3 0  9993",
    "TLE_LINE2": "2 20436  98.6635 201.3288 0142171  36.6170 324.4649 14.68025823748883",
    "OBJECT_ID": "1990-005A",
    "OBJECT_NUMBER": "20436",
    "SEMIMAJOR_AXIS": "7045.514",
    "PERIOD": "98.091",
    "APOGEE": "767.546",
    "PERIGEE": "567.213",
    "DECAYED": "0"
  },
  {
    "COMMENT": "GENERATED VIA SPACETRACK.ORG API",
    "ORIGINATOR": "18 SPCS",
    "NORAD_CAT_ID": "20436",
    "OBJECT_NAME": "SPOT 2",
    "OBJECT_TYPE": "PAYLOAD",
    "CLASSIFICATION_TYPE": "U",
    "INTLDES": "90005A",
    "EPOCH": "2023-05-12 18:07:49",
    "EPOCH_MICROSECONDS": "156320",
    "MEAN_MOTION": "14.68028959",
    "ECCENTRICITY": "0.0142133",
    "INCLINATION": "98.6635",
    "RA_OF_ASC_NODE": "201.9782",
    "ARG_OF_PERICENTER": "34.7089",
    "MEAN_ANOMALY": "326.3287",
    "EPHEMERIS_TYPE": "0",
    "ELEMENT_SET_NO": "999",
    "REV_AT_EPOCH": "74897",
    "BSTAR": "0.00033622",
    "MEAN_MOTION_DOT": "0.00002183",
    "MEAN_MOTION_DDOT": "0",
    "FILE": "3906381",
    "TLE_LINE0": "0 SPOT 2",
    "TLE_LINE1": "1 20436U 90005A   23132.75543005  .00002183  00000-0  33622-3 0  9992",
    "TLE_LINE2": "2 20436  98.6635 201.9782 0142133  34.7089 326.3287 14.68028959748976",
    "OBJECT_ID": "1990-005A",
    "OBJECT_NUMBER": "20436",
    "SEMIMAJOR_AXIS": "7045.504",
    "PERIOD": "98.091",
    "APOGEE": "767.509",
    "PERIGEE": "567.230",
    "DECAYED": "0"
  },
  {
    "COMMENT": "GENERATED VIA SPACETRACK.ORG API",
    "ORIGINATOR": "18 SPCS",
    "NORAD_CAT_ID": "20436",
    "OBJECT_NAME": "SPOT 2",
    "OBJECT_TYPE": "PAYLOAD",
    "CLASSIFICATION_TYPE": "U",
    "INTLDES": "90005A",
    "EPOCH": "2023-05-13 03:56:42",
    "EPOCH_MICROSECONDS": "152064",
    "MEAN_MOTION": "14.68030257",
    "ECCENTRICITY": "0.0142094",
    "INCLINATION": "98.6636",
    "RA_OF_ASC_NODE": "202.411",
    "ARG_OF_PERICENTER": "33.4339",
    "MEAN_ANOMALY": "327.5737",
    "EPHEMERIS_TYPE": "0",
    "ELEMENT_SET_NO": "999",
    "REV_AT_EPOCH": "74905",
    "BSTAR": "0.00031327",
    "MEAN_MOTION_DOT": "0.0000203",
    "MEAN_MOTION_DDOT": "0",
    "FILE": "3906602",
    "TLE_LINE0": "0 SPOT 2",
    "TLE_LINE1": "1 20436U 90005A   23133.16437676  .00002030  00000-0  31327-3 0  9995",
    "TLE_LINE2": "2 20436  98.6636 202.4110 0142094  33.4339 327.5737 14.68030257749055",
    "OBJECT_ID": "1990-005A",
    "OBJECT_NUMBER": "20436",
    "SEMIMAJOR_AXIS": "7045.500",
    "PERIOD": "98.091",
    "APOGEE": "767.478",
    "PERIGEE": "567.253",
    "DECAYED": "0"
  }
]